STARLINK-5471           
1 54766U 22175J   26068.32231360  .00000862  00000+0  72231-4 0  9991
2 54766  53.2178  45.7652 0001585  85.7722 274.3451 15.08852588179862
SEDNA-2                 
1 63153U 25009DQ  26068.79893845  .00008085  00000+0  49393-3 0  9990
2 63153  97.4615 144.8075 0010309  53.0260 307.1912 15.10492622 63116
